{
  "type": "FeatureCollection",
  "features": [
    {
      "type": "Feature",
      "properties": {
        "norad_id": 40545,
        "name": "GSAT0204 (GALILEO 8)",
        "group": "gnss",
        "lat": -56.20987526788736,
        "lon": -116.14468784206024,
        "alt_km": 23209.848317604763,
        "timestamp": "2025-12-26T20:30:46.153914+00:00",
        "meta_object_name": "GSAT0204 (GALILEO 8)",
        "meta_object_id": "2015-017B",
        "meta_epoch": "2025-12-20T13:26:28.826304",
        "meta_mean_motion": 1.70475697,
        "meta_eccentricity": 0.0006133,
        "meta_inclination": 56.8522,
        "meta_ra_of_asc_node": 346.4847,
        "meta_arg_of_pericenter": 266.5447,
        "meta_mean_anomaly": 93.3948,
        "meta_ephemeris_type": 0,
        "meta_classification_type": "U",
        "meta_norad_cat_id": 40545,
        "meta_element_set_no": 999,
        "meta_rev_at_epoch": 2920,
        "meta_bstar": 0,
        "meta_mean_motion_dot": -7e-07,
        "meta_mean_motion_ddot": 0,
        "tle_line1": "1 40545U 15017B   25354.56005586 -.00000070  00000+0  00000+0 0  9992",
        "tle_line2": "2 40545  56.8522 346.4847 0006133 266.5447  93.3948  1.70475697 29206"
      },
      "geometry": {
        "type": "Point",
        "coordinates": [
          -116.14468784206024,
          -56.20987526788736
        ]
      }
    },
    {
      "type": "Feature",
      "properties": {
        "norad_id": 40549,
        "name": "BEIDOU-3S IGSO-1S (C31)",
        "group": "gnss",
        "lat": -15.585896244101045,
        "lon": 131.27722005205007,
        "alt_km": 35630.53719948268,
        "timestamp": "2025-12-26T20:30:46.153924+00:00",
        "meta_object_name": "BEIDOU-3S IGSO-1S (C31)",
        "meta_object_id": "2015-019A",
        "meta_epoch": "2025-12-26T15:52:50.904192",
        "meta_mean_motion": 1.00290025,
        "meta_eccentricity": 0.00365409,
        "meta_inclination": 49.5255,
        "meta_ra_of_asc_node": 297.5472,
        "meta_arg_of_pericenter": 194.2195,
        "meta_mean_anomaly": 296.7012,
        "meta_ephemeris_type": 0,
        "meta_classification_type": "U",
        "meta_norad_cat_id": 40549,
        "meta_element_set_no": 999,
        "meta_rev_at_epoch": 3934,
        "meta_bstar": 0,
        "meta_mean_motion_dot": -1.8e-06,
        "meta_mean_motion_ddot": 0,
        "tle_line1": "1 40549U 15019A   25360.66170028 -.00000180  00000+0  00000+0 0  9992",
        "tle_line2": "2 40549  49.5255 297.5472 0036540 194.2195 296.7012  1.00290025 39344"
      },
      "geometry": {
        "type": "Point",
        "coordinates": [
          131.27722005205007,
          -15.585896244101045
        ]
      }
    },
    {
      "type": "Feature",
      "properties": {
        "norad_id": 40730,
        "name": "GPS BIIF-10 (PRN 08)",
        "group": "gnss",
        "lat": 51.212304738755385,
        "lon": 30.089743180468204,
        "alt_km": 20114.869704454053,
        "timestamp": "2025-12-26T20:30:46.153935+00:00",
        "meta_object_name": "GPS BIIF-10 (PRN 08)",
        "meta_object_id": "2015-033A",
        "meta_epoch": "2025-12-26T05:05:23.462304",
        "meta_mean_motion": 2.00564909,
        "meta_eccentricity": 0.01117558,
        "meta_inclination": 54.1189,
        "meta_ra_of_asc_node": 274.2184,
        "meta_arg_of_pericenter": 27.1685,
        "meta_mean_anomaly": 333.4602,
        "meta_ephemeris_type": 0,
        "meta_classification_type": "U",
        "meta_norad_cat_id": 40730,
        "meta_element_set_no": 999,
        "meta_rev_at_epoch": 7652,
        "meta_bstar": 0,
        "meta_mean_motion_dot": -2e-07,
        "meta_mean_motion_ddot": 0,
        "tle_line1": "1 40730U 15033A   25360.21207711 -.00000020  00000+0  00000+0 0  9994",
        "tle_line2": "2 40730  54.1189 274.2184 0111755  27.1685 333.4602  2.00564909 76527"
      },
      "geometry": {
        "type": "Point",
        "coordinates": [
          30.089743180468204,
          51.212304738755385
        ]
      }
    },
    {
      "type": "Feature",
      "properties": {
        "norad_id": 40748,
        "name": "BEIDOU-3S M2S (C58)",
        "group": "gnss",
        "lat": -51.27774001801889,
        "lon": -112.74448900426306,
        "alt_km": 21502.22511394567,
        "timestamp": "2025-12-26T20:30:46.153945+00:00",
        "meta_object_name": "BEIDOU-3S M2S (C58)",
        "meta_object_id": "2015-037A",
        "meta_epoch": "2025-12-24T19:32:44.901312",
        "meta_mean_motion": 1.86229543,
        "meta_eccentricity": 0.00118109,
        "meta_inclination": 55.028,
        "meta_ra_of_asc_node": 308.0499,
        "meta_arg_of_pericenter": 271.2412,
        "meta_mean_anomaly": 88.6304,
        "meta_ephemeris_type": 0,
        "meta_classification_type": "U",
        "meta_norad_cat_id": 40748,
        "meta_element_set_no": 999,
        "meta_rev_at_epoch": 7087,
        "meta_bstar": 0,
        "meta_mean_motion_dot": -5.3e-07,
        "meta_mean_motion_ddot": 0,
        "tle_line1": "1 40748U 15037A   25358.81440858 -.00000053  00000+0  00000+0 0  9997",
        "tle_line2": "2 40748  55.0280 308.0499 0011810 271.2412  88.6304  1.86229543 70879"
      },
      "geometry": {
        "type": "Point",
        "coordinates": [
          -112.74448900426306,
          -51.27774001801889
        ]
      }
    },
    {
      "type": "Feature",
      "properties": {
        "norad_id": 40749,
        "name": "BEIDOU-3S M1S (C57)",
        "group": "gnss",
        "lat": 35.486935431936026,
        "lon": 98.04419992294278,
        "alt_km": 21528.388583673463,
        "timestamp": "2025-12-26T20:30:46.153955+00:00",
        "meta_object_name": "BEIDOU-3S M1S (C57)",
        "meta_object_id": "2015-037B",
        "meta_epoch": "2025-12-26T02:48:07.376256",
        "meta_mean_motion": 1.86253839,
        "meta_eccentricity": 0.00037251,
        "meta_inclination": 55.0231,
        "meta_ra_of_asc_node": 307.9941,
        "meta_arg_of_pericenter": 3.0016,
        "meta_mean_anomaly": 357.0085,
        "meta_ephemeris_type": 0,
        "meta_classification_type": "U",
        "meta_norad_cat_id": 40749,
        "meta_element_set_no": 999,
        "meta_rev_at_epoch": 7090,
        "meta_bstar": 0,
        "meta_mean_motion_dot": -5.5e-07,
        "meta_mean_motion_ddot": 0,
        "tle_line1": "1 40749U 15037B   25360.11675204 -.00000055  00000+0  00000+0 0  9991",
        "tle_line2": "2 40749  55.0231 307.9941 0003725   3.0016 357.0085  1.86253839 70901"
      },
      "geometry": {
        "type": "Point",
        "coordinates": [
          98.04419992294278,
          35.486935431936026
        ]
      }
    },
    {
      "type": "Feature",
      "properties": {
        "norad_id": 40889,
        "name": "GSAT0205 (GALILEO 9)",
        "group": "gnss",
        "lat": 35.57494788080894,
        "lon": -103.55133076488818,
        "alt_km": 23199.517192103514,
        "timestamp": "2025-12-26T20:30:46.153965+00:00",
        "meta_object_name": "GSAT0205 (GALILEO 9)",
        "meta_object_id": "2015-045A",
        "meta_epoch": "2025-12-23T06:16:38.782272",
        "meta_mean_motion": 1.70473104,
        "meta_eccentricity": 0.00062228,
        "meta_inclination": 55.0001,
        "meta_ra_of_asc_node": 226.4673,
        "meta_arg_of_pericenter": 42.5636,
        "meta_mean_anomaly": 317.5856,
        "meta_ephemeris_type": 0,
        "meta_classification_type": "U",
        "meta_norad_cat_id": 40889,
        "meta_element_set_no": 999,
        "meta_rev_at_epoch": 6401,
        "meta_bstar": 0,
        "meta_mean_motion_dot": 7.3e-07,
        "meta_mean_motion_ddot": 0,
        "tle_line1": "1 40889U 15045A   25357.26155998  .00000073  00000+0  00000+0 0  9999",
        "tle_line2": "2 40889  55.0001 226.4673 0006222  42.5636 317.5856  1.70473104 64013"
      },
      "geometry": {
        "type": "Point",
        "coordinates": [
          -103.55133076488818,
          35.57494788080894
        ]
      }
    },
    {
      "type": "Feature",
      "properties": {
        "norad_id": 40890,
        "name": "GSAT0206 (GALILEO 10)",
        "group": "gnss",
        "lat": -54.98878808549036,
        "lon": 136.04740423752932,
        "alt_km": 23236.27533927791,
        "timestamp": "2025-12-26T20:30:46.153976+00:00",
        "meta_object_name": "GSAT0206 (GALILEO 10)",
        "meta_object_id": "2015-045B",
        "meta_epoch": "2025-12-25T05:48:23.394816",
        "meta_mean_motion": 1.7047315,
        "meta_eccentricity": 0.0004109,
        "meta_inclination": 54.9985,
        "meta_ra_of_asc_node": 226.4076,
        "meta_arg_of_pericenter": 41.5093,
        "meta_mean_anomaly": 318.6128,
        "meta_ephemeris_type": 0,
        "meta_classification_type": "U",
        "meta_norad_cat_id": 40890,
        "meta_element_set_no": 999,
        "meta_rev_at_epoch": 6407,
        "meta_bstar": 0,
        "meta_mean_motion_dot": 7e-07,
        "meta_mean_motion_ddot": 0,
        "tle_line1": "1 40890U 15045B   25359.24193744  .00000070  00000+0  00000+0 0  9999",
        "tle_line2": "2 40890  54.9985 226.4076 0004109  41.5093 318.6128  1.70473150 64070"
      },
      "geometry": {
        "type": "Point",
        "coordinates": [
          136.04740423752932,
          -54.98878808549036
        ]
      }
    }
  ]
}